[
  {
    "CCSDS_OMM_VERS": "3.0",
    "COMMENT": "GENERATED VIA SPACE-TRACK.ORG API",
    "CREATION_DATE": "2026-02-19T17:59:09",
    "ORIGINATOR": "18 SPCS",
    "OBJECT_NAME": "CZ-6A DEB",
    "OBJECT_ID": "2024-140ACM",
    "CENTER_NAME": "EARTH",
    "REF_FRAME": "TEME",
    "TIME_SYSTEM": "UTC",
    "MEAN_ELEMENT_THEORY": "SGP4",
    "EPOCH": "2026-02-19T15:22:15.785472",
    "MEAN_MOTION": "14.83894329",
    "ECCENTRICITY": "0.01219913",
    "INCLINATION": "89.0494",
    "RA_OF_ASC_NODE": "285.8782",
    "ARG_OF_PERICENTER": "221.1041",
    "MEAN_ANOMALY": "138.0948",
    "EPHEMERIS_TYPE": "0",
    "CLASSIFICATION_TYPE": "U",
    "NORAD_CAT_ID": "61821",
    "ELEMENT_SET_NO": "999",
    "REV_AT_EPOCH": "7672",
    "BSTAR": "0.00099217517000",
    "MEAN_MOTION_DOT": "0.00009426",
    "MEAN_MOTION_DDOT": "0.0000000000000",
    "SEMIMAJOR_AXIS": "6995.196",
    "PERIOD": "97.042",
    "APOAPSIS": "702.396",
    "PERIAPSIS": "531.725",
    "OBJECT_TYPE": "DEBRIS",
    "RCS_SIZE": "SMALL",
    "COUNTRY_CODE": "PRC",
    "LAUNCH_DATE": "2024-08-06",
    "SITE": "TSC",
    "DECAY_DATE": null,
    "FILE": "5039972",
    "GP_ID": "313182210",
    "TLE_LINE0": "0 CZ-6A DEB",
    "TLE_LINE1": "1 61821U 24140ACM 26050.64046048  .00009426  00000-0  99218-3 0  9997",
    "TLE_LINE2": "2 61821  89.0494 285.8782 0121991 221.1041 138.0948 14.83894329 76724"
  },
  {
    "CCSDS_OMM_VERS": "3.0",
    "COMMENT": "GENERATED VIA SPACE-TRACK.ORG API",
    "CREATION_DATE": "2026-02-19T17:59:09",
    "ORIGINATOR": "18 SPCS",
    "OBJECT_NAME": "DELTA 1 DEB",
    "OBJECT_ID": "1975-052BP",
    "CENTER_NAME": "EARTH",
    "REF_FRAME": "TEME",
    "TIME_SYSTEM": "UTC",
    "MEAN_ELEMENT_THEORY": "SGP4",
    "EPOCH": "2026-02-19T15:22:03.260928",
    "MEAN_MOTION": "13.11153343",
    "ECCENTRICITY": "0.01894406",
    "INCLINATION": "99.4256",
    "RA_OF_ASC_NODE": "315.2655",
    "ARG_OF_PERICENTER": "315.9199",
    "MEAN_ANOMALY": "159.6809",
    "EPHEMERIS_TYPE": "0",
    "CLASSIFICATION_TYPE": "U",
    "NORAD_CAT_ID": "21345",
    "ELEMENT_SET_NO": "999",
    "REV_AT_EPOCH": "65921",
    "BSTAR": "0.00064175944000",
    "MEAN_MOTION_DOT": "0.00000209",
    "MEAN_MOTION_DDOT": "0.0000000000000",
    "SEMIMAJOR_AXIS": "7596.838",
    "PERIOD": "109.827",
    "APOAPSIS": "1362.618",
    "PERIAPSIS": "1074.788",
    "OBJECT_TYPE": "DEBRIS",
    "RCS_SIZE": "SMALL",
    "COUNTRY_CODE": "US",
    "LAUNCH_DATE": "1975-06-12",
    "SITE": "AFWTR",
    "DECAY_DATE": null,
    "FILE": "5039972",
    "GP_ID": "313161132",
    "TLE_LINE0": "0 DELTA 1 DEB",
    "TLE_LINE1": "1 21345U 75052BP  26050.64031552  .00000209  00000-0  64176-3 0  9991",
    "TLE_LINE2": "2 21345  99.4256 315.2655 0189441 315.9199 159.6809 13.11153343659219"
  },
  {
    "CCSDS_OMM_VERS": "3.0",
    "COMMENT": "GENERATED VIA SPACE-TRACK.ORG API",
    "CREATION_DATE": "2026-02-19T17:59:09",
    "ORIGINATOR": "18 SPCS",
    "OBJECT_NAME": "CZ-6A DEB",
    "OBJECT_ID": "2024-140VV",
    "CENTER_NAME": "EARTH",
    "REF_FRAME": "TEME",
    "TIME_SYSTEM": "UTC",
    "MEAN_ELEMENT_THEORY": "SGP4",
    "EPOCH": "2026-02-19T15:20:49.843392",
    "MEAN_MOTION": "14.26767938",
    "ECCENTRICITY": "0.00362662",
    "INCLINATION": "88.9685",
    "RA_OF_ASC_NODE": "285.4396",
    "ARG_OF_PERICENTER": "238.0078",
    "MEAN_ANOMALY": "121.7589",
    "EPHEMERIS_TYPE": "0",
    "CLASSIFICATION_TYPE": "U",
    "NORAD_CAT_ID": "61356",
    "ELEMENT_SET_NO": "999",
    "REV_AT_EPOCH": "7620",
    "BSTAR": "0.00057806578000",
    "MEAN_MOTION_DOT": "0.00001423",
    "MEAN_MOTION_DDOT": "0.0000000000000",
    "SEMIMAJOR_AXIS": "7180.692",
    "PERIOD": "100.927",
    "APOAPSIS": "828.598",
    "PERIAPSIS": "776.515",
    "OBJECT_TYPE": "DEBRIS",
    "RCS_SIZE": "SMALL",
    "COUNTRY_CODE": "PRC",
    "LAUNCH_DATE": "2024-08-06",
    "SITE": "TSC",
    "DECAY_DATE": null,
    "FILE": "5039972",
    "GP_ID": "313181519",
    "TLE_LINE0": "0 CZ-6A DEB",
    "TLE_LINE1": "1 61356U 24140VV  26050.63946578  .00001423  00000-0  57807-3 0  9993",
    "TLE_LINE2": "2 61356  88.9685 285.4396 0036266 238.0078 121.7589 14.26767938 76206"
  },
  {
    "CCSDS_OMM_VERS": "3.0",
    "COMMENT": "GENERATED VIA SPACE-TRACK.ORG API",
    "CREATION_DATE": "2026-02-19T17:59:09",
    "ORIGINATOR": "18 SPCS",
    "OBJECT_NAME": "CZ-6A DEB",
    "OBJECT_ID": "2024-140FU",
    "CENTER_NAME": "EARTH",
    "REF_FRAME": "TEME",
    "TIME_SYSTEM": "UTC",
    "MEAN_ELEMENT_THEORY": "SGP4",
    "EPOCH": "2026-02-19T15:20:32.898624",
    "MEAN_MOTION": "14.14246952",
    "ECCENTRICITY": "0.00658372",
    "INCLINATION": "89.0311",
    "RA_OF_ASC_NODE": "290.6273",
    "ARG_OF_PERICENTER": "214.5256",
    "MEAN_ANOMALY": "145.1648",
    "EPHEMERIS_TYPE": "0",
    "CLASSIFICATION_TYPE": "U",
    "NORAD_CAT_ID": "60793",
    "ELEMENT_SET_NO": "999",
    "REV_AT_EPOCH": "7866",
    "BSTAR": "0.00005025484600",
    "MEAN_MOTION_DOT": "0.00000112",
    "MEAN_MOTION_DDOT": "0.0000000000000",
    "SEMIMAJOR_AXIS": "7223.012",
    "PERIOD": "101.821",
    "APOAPSIS": "892.431",
    "PERIAPSIS": "797.323",
    "OBJECT_TYPE": "DEBRIS",
    "RCS_SIZE": "SMALL",
    "COUNTRY_CODE": "PRC",
    "LAUNCH_DATE": "2024-08-06",
    "SITE": "TSC",
    "DECAY_DATE": null,
    "FILE": "5039972",
    "GP_ID": "313181292",
    "TLE_LINE0": "0 CZ-6A DEB",
    "TLE_LINE1": "1 60793U 24140FU  26050.63926966  .00000112  00000-0  50255-4 0  9991",
    "TLE_LINE2": "2 60793  89.0311 290.6273 0065837 214.5256 145.1648 14.14246952 78666"
  },
  {
    "CCSDS_OMM_VERS": "3.0",
    "COMMENT": "GENERATED VIA SPACE-TRACK.ORG API",
    "CREATION_DATE": "2026-02-19T17:59:09",
    "ORIGINATOR": "18 SPCS",
    "OBJECT_NAME": "SL-8 DEB",
    "OBJECT_ID": "1991-009AB",
    "CENTER_NAME": "EARTH",
    "REF_FRAME": "TEME",
    "TIME_SYSTEM": "UTC",
    "MEAN_ELEMENT_THEORY": "SGP4",
    "EPOCH": "2026-02-19T15:20:15.469152",
    "MEAN_MOTION": "12.22030742",
    "ECCENTRICITY": "0.01256359",
    "INCLINATION": "74.0438",
    "RA_OF_ASC_NODE": "278.7924",
    "ARG_OF_PERICENTER": "11.4129",
    "MEAN_ANOMALY": "16.7243",
    "EPHEMERIS_TYPE": "0",
    "CLASSIFICATION_TYPE": "U",
    "NORAD_CAT_ID": "21164",
    "ELEMENT_SET_NO": "999",
    "REV_AT_EPOCH": "55840",
    "BSTAR": "0.00026602781000",
    "MEAN_MOTION_DOT": "0.00000014",
    "MEAN_MOTION_DDOT": "0.0000000000000",
    "SEMIMAJOR_AXIS": "7961.846",
    "PERIOD": "117.837",
    "APOAPSIS": "1683.740",
    "PERIAPSIS": "1483.681",
    "OBJECT_TYPE": "DEBRIS",
    "RCS_SIZE": "MEDIUM",
    "COUNTRY_CODE": "CIS",
    "LAUNCH_DATE": "1991-02-12",
    "SITE": "PKMTR",
    "DECAY_DATE": null,
    "FILE": "5039972",
    "GP_ID": "313160576",
    "TLE_LINE0": "0 SL-8 DEB",
    "TLE_LINE1": "1 21164U 91009AB  26050.63906793  .00000014  00000-0  26603-3 0  9994",
    "TLE_LINE2": "2 21164  74.0438 278.7924 0125636  11.4129  16.7243 12.22030742558400"
  },
  {
    "CCSDS_OMM_VERS": "3.0",
    "COMMENT": "GENERATED VIA SPACE-TRACK.ORG API",
    "CREATION_DATE": "2026-02-19T17:59:09",
    "ORIGINATOR": "18 SPCS",
    "OBJECT_NAME": "DELTA 1 DEB",
    "OBJECT_ID": "1973-086CA",
    "CENTER_NAME": "EARTH",
    "REF_FRAME": "TEME",
    "TIME_SYSTEM": "UTC",
    "MEAN_ELEMENT_THEORY": "SGP4",
    "EPOCH": "2026-02-19T15:20:12.918624",
    "MEAN_MOTION": "12.61789864",
    "ECCENTRICITY": "0.00264628",
    "INCLINATION": "101.7889",
    "RA_OF_ASC_NODE": "285.6679",
    "ARG_OF_PERICENTER": "163.1300",
    "MEAN_ANOMALY": "221.9110",
    "EPHEMERIS_TYPE": "0",
    "CLASSIFICATION_TYPE": "U",
    "NORAD_CAT_ID": "7082",
    "ELEMENT_SET_NO": "999",
    "REV_AT_EPOCH": "39394",
    "BSTAR": "0.00266127940000",
    "MEAN_MOTION_DOT": "0.00000428",
    "MEAN_MOTION_DDOT": "0.0000000000000",
    "SEMIMAJOR_AXIS": "7793.702",
    "PERIOD": "114.124",
    "APOAPSIS": "1436.192",
    "PERIAPSIS": "1394.943",
    "OBJECT_TYPE": "DEBRIS",
    "RCS_SIZE": "MEDIUM",
    "COUNTRY_CODE": "US",
    "LAUNCH_DATE": "1973-11-06",
    "SITE": "AFWTR",
    "DECAY_DATE": null,
    "FILE": "5039972",
    "GP_ID": "313157291",
    "TLE_LINE0": "0 DELTA 1 DEB",
    "TLE_LINE1": "1 07082U 73086CA  26050.63903841  .00000428  00000-0  26613-2 0  9992",
    "TLE_LINE2": "2 07082 101.7889 285.6679 0026463 163.1300 221.9110 12.61789864393947"
  },
  {
    "CCSDS_OMM_VERS": "3.0",
    "COMMENT": "GENERATED VIA SPACE-TRACK.ORG API",
    "CREATION_DATE": "2026-02-19T17:59:09",
    "ORIGINATOR": "18 SPCS",
    "OBJECT_NAME": "SL-8 DEB",
    "OBJECT_ID": "1991-009U",
    "CENTER_NAME": "EARTH",
    "REF_FRAME": "TEME",
    "TIME_SYSTEM": "UTC",
    "MEAN_ELEMENT_THEORY": "SGP4",
    "EPOCH": "2026-02-19T15:19:51.288384",
    "MEAN_MOTION": "12.24124740",
    "ECCENTRICITY": "0.01739939",
    "INCLINATION": "73.9498",
    "RA_OF_ASC_NODE": "116.0250",
    "ARG_OF_PERICENTER": "51.4065",
    "MEAN_ANOMALY": "117.0303",
    "EPHEMERIS_TYPE": "0",
    "CLASSIFICATION_TYPE": "U",
    "NORAD_CAT_ID": "21157",
    "ELEMENT_SET_NO": "999",
    "REV_AT_EPOCH": "56237",
    "BSTAR": "0.00029404572000",
    "MEAN_MOTION_DOT": "0.00000019",
    "MEAN_MOTION_DDOT": "0.0000000000000",
    "SEMIMAJOR_AXIS": "7952.763",
    "PERIOD": "117.635",
    "APOAPSIS": "1713.002",
    "PERIAPSIS": "1436.255",
    "OBJECT_TYPE": "DEBRIS",
    "RCS_SIZE": "MEDIUM",
    "COUNTRY_CODE": "CIS",
    "LAUNCH_DATE": "1991-02-12",
    "SITE": "PKMTR",
    "DECAY_DATE": null,
    "FILE": "5039972",
    "GP_ID": "313160073",
    "TLE_LINE0": "0 SL-8 DEB",
    "TLE_LINE1": "1 21157U 91009U   26050.63878806  .00000019  00000-0  29405-3 0  9997",
    "TLE_LINE2": "2 21157  73.9498 116.0250 0173994  51.4065 117.0303 12.24124740562372"
  }
]